{"type": "FeatureCollection", "features": [ {"type": "Feature", "properties": {"norad_id": 41774, "name": "SKYSAT-C3", "group": "resource", "lat": -11.862024197473318, "lon": 19.203078451280238, "alt_km": 438.64909553713824, "timestamp": "2025-12-09T20:37:08.939119+00:00", "meta": {"OBJECT_NAME": "SKYSAT-C3", "OBJECT_ID": "2016-058E", "EPOCH": "2025-12-09T08:13:44.896800", "MEAN_MOTION": 15.44211075, "ECCENTRICITY": 0.00016082, "INCLINATION": 96.93, "RA_OF_ASC_NODE": 17.247, "ARG_OF_PERICENTER": 106.2569, "MEAN_ANOMALY": 253.8858, "EPHEMERIS_TYPE": 0, "CLASSIFICATION_TYPE": "U", "NORAD_CAT_ID": 41774, "ELEMENT_SET_NO": 999, "REV_AT_EPOCH": 51673, "BSTAR": 0.00051602261, "MEAN_MOTION_DOT": 0.00023646, "MEAN_MOTION_DDOT": 0}, "tle": {"line1": "1 41774U 16058E   25343.34288075  .00023646  00000+0  51602-3 0  9994", "line2": "2 41774  96.9300  17.2470 0001608 106.2569 253.8858 15.44211075516738"}}, "geometry": {"type": "Point", "coordinates": [19.203078451280238, -11.862024197473318]}}, {"type": "Feature", "properties": {"norad_id": 41785, "name": "ALSAT 1B", "group": "resource", "lat": -53.95956646751401, "lon": 164.94122828878866, "alt_km": 665.5968329698153, "timestamp": "2025-12-09T20:37:08.939129+00:00", "meta": {"OBJECT_NAME": "ALSAT 1B", "OBJECT_ID": "2016-059C", "EPOCH": "2025-12-09T14:39:48.362688", "MEAN_MOTION": 14.72070599, "ECCENTRICITY": 0.00106234, "INCLINATION": 97.7811, "RA_OF_ASC_NODE": 355.5355, "ARG_OF_PERICENTER": 111.9967, "MEAN_ANOMALY": 248.2371, "EPHEMERIS_TYPE": 0, "CLASSIFICATION_TYPE": "U", "NORAD_CAT_ID": 41785, "ELEMENT_SET_NO": 999, "REV_AT_EPOCH": 49268, "BSTAR": 0.00013278401, "MEAN_MOTION_DOT": 7.88e-06, "MEAN_MOTION_DDOT": 0}, "tle": {"line1": "1 41785U 16059C   25343.61097642  .00000788  00000+0  13278-3 0  9994", "line2": "2 41785  97.7811 355.5355 0010623 111.9967 248.2371 14.72070599492687"}}, "geometry": {"type": "Point", "coordinates": [164.94122828878866, -53.95956646751401]}}, {"type": "Feature", "properties": {"norad_id": 41787, "name": "PATHFINDER 1", "group": "resource", "lat": 1.8682926838142013, "lon": -13.490251146942315, "alt_km": 671.5644133305268, "timestamp": "2025-12-09T20:37:08.939139+00:00", "meta": {"OBJECT_NAME": "PATHFINDER 1", "OBJECT_ID": "2016-059E", "EPOCH": "2025-12-09T12:25:38.745984", "MEAN_MOTION": 14.67312716, "ECCENTRICITY": 0.00300581, "INCLINATION": 97.8139, "RA_OF_ASC_NODE": 346.4409, "ARG_OF_PERICENTER": 90.9607, "MEAN_ANOMALY": 269.5043, "EPHEMERIS_TYPE": 0, "CLASSIFICATION_TYPE": "U", "NORAD_CAT_ID": 41787, "ELEMENT_SET_NO": 999, "REV_AT_EPOCH": 49189, "BSTAR": 0.00025681016, "MEAN_MOTION_DOT": 1.412e-05, "MEAN_MOTION_DDOT": 0}, "tle": {"line1": "1 41787U 16059E   25343.51780956  .00001412  00000+0  25681-3 0  9998", "line2": "2 41787  97.8139 346.4409 0030058  90.9607 269.5043 14.67312716491891"}}, "geometry": {"type": "Point", "coordinates": [-13.490251146942315, 1.8682926838142013]}}, {"type": "Feature", "properties": {"norad_id": 41790, "name": "SCATSAT 1", "group": "resource", "lat": -54.488124415049306, "lon": -151.0866363769949, "alt_km": 645.1257727773364, "timestamp": "2025-12-09T20:37:08.939161+00:00", "meta": {"OBJECT_NAME": "SCATSAT 1", "OBJECT_ID": "2016-059H", "EPOCH": "2025-12-09T14:41:31.589088", "MEAN_MOTION": 14.7892095, "ECCENTRICITY": 0.0056121, "INCLINATION": 98.1466, "RA_OF_ASC_NODE": 40.2434, "ARG_OF_PERICENTER": 137.8727, "MEAN_ANOMALY": 222.6818, "EPHEMERIS_TYPE": 0, "CLASSIFICATION_TYPE": "U", "NORAD_CAT_ID": 41790, "ELEMENT_SET_NO": 999, "REV_AT_EPOCH": 7356, "BSTAR": 0.00038427365, "MEAN_MOTION_DOT": 2.853e-05, "MEAN_MOTION_DDOT": 0}, "tle": {"line1": "1 41790U 16059H   25343.61217117  .00002853  00000+0  38427-3 0  9999", "line2": "2 41790  98.1466  40.2434 0056121 137.8727 222.6818 14.78920950 73569"}}, "geometry": {"type": "Point", "coordinates": [-151.0866363769949, -54.488124415049306]}}, {"type": "Feature", "properties": {"norad_id": 41875, "name": "GOKTURK 1A", "group": "resource", "lat": 52.68377140738945, "lon": 67.08877348764207, "alt_km": 678.7097201459828, "timestamp": "2025-12-09T20:37:08.939172+00:00", "meta": {"OBJECT_NAME": "GOKTURK 1A", "OBJECT_ID": "2016-073A", "EPOCH": "2025-12-09T15:07:04.625760", "MEAN_MOTION": 14.6277385, "ECCENTRICITY": 0.0001246, "INCLINATION": 98.1427, "RA_OF_ASC_NODE": 236.0362, "ARG_OF_PERICENTER": 79.5075, "MEAN_ANOMALY": 280.6267, "EPHEMERIS_TYPE": 0, "CLASSIFICATION_TYPE": "U", "NORAD_CAT_ID": 41875, "ELEMENT_SET_NO": 999, "REV_AT_EPOCH": 48111, "BSTAR": 0.00016901001, "MEAN_MOTION_DOT": 8.15e-06, "MEAN_MOTION_DDOT": 0}, "tle": {"line1": "1 41875U 16073A   25343.62991465  .00000815  00000+0  16901-3 0  9994", "line2": "2 41875  98.1427 236.0362 0001246  79.5075 280.6267 14.62773850481115"}}, "geometry": {"type": "Point", "coordinates": [67.08877348764207, 52.68377140738945]}}, {"type": "Feature", "properties": {"norad_id": 41877, "name": "RESOURCESAT-2A", "group": "resource", "lat": -60.49048348516572, "lon": -142.10637410146393, "alt_km": 826.3631772297913, "timestamp": "2025-12-09T20:37:08.939183+00:00", "meta": {"OBJECT_NAME": "RESOURCESAT-2A", "OBJECT_ID": "2016-074A", "EPOCH": "2025-12-09T14:25:05.348640", "MEAN_MOTION": 14.21599062, "ECCENTRICITY": 0.00011285, "INCLINATION": 98.7756, "RA_OF_ASC_NODE": 53.4749, "ARG_OF_PERICENTER": 272.846, "MEAN_ANOMALY": 87.2588, "EPHEMERIS_TYPE": 0, "CLASSIFICATION_TYPE": "U", "NORAD_CAT_ID": 41877, "ELEMENT_SET_NO": 999, "REV_AT_EPOCH": 46736, "BSTAR": 0.00033679211, "MEAN_MOTION_DOT": 6.94e-06, "MEAN_MOTION_DDOT": 0}, "tle": {"line1": "1 41877U 16074A   25343.60075635  .00000694  00000+0  33679-3 0  9993", "line2": "2 41877  98.7756  53.4749 0001128 272.8460  87.2588 14.21599062467367"}}, "geometry": {"type": "Point", "coordinates": [-142.10637410146393, -60.49048348516572]}}, {"type": "Feature", "properties": {"norad_id": 41948, "name": "CARTOSAT-2D", "group": "resource", "lat": -42.392360841102374, "lon": 48.25014184377967, "alt_km": 517.3753264901407, "timestamp": "2025-12-09T20:37:08.939193+00:00", "meta": {"OBJECT_NAME": "CARTOSAT-2D", "OBJECT_ID": "2017-008A", "EPOCH": "2025-12-09T14:29:03.928416", "MEAN_MOTION": 15.19210152, "ECCENTRICITY": 0.00042944, "INCLINATION": 97.4386, "RA_OF_ASC_NODE": 41.1484, "ARG_OF_PERICENTER": 171.1795, "MEAN_ANOMALY": 188.9516, "EPHEMERIS_TYPE": 0, "CLASSIFICATION_TYPE": "U", "NORAD_CAT_ID": 41948, "ELEMENT_SET_NO": 999, "REV_AT_EPOCH": 48879, "BSTAR": 0.00040506543, "MEAN_MOTION_DOT": 8.465e-05, "MEAN_MOTION_DDOT": 0}, "tle": {"line1": "1 41948U 17008A   25343.60351769  .00008465  00000+0  40507-3 0  9997", "line2": "2 41948  97.4386  41.1484 0004294 171.1795 188.9516 15.19210152488798"}}, "geometry": {"type": "Point", "coordinates": [48.25014184377967, -42.392360841102374]}}, {"type": "Feature", "properties": {"norad_id": 42063, "name": "SENTINEL-2B", "group": "resource", "lat": 63.77264732244285, "lon": -105.82728542039676, "alt_km": 782.0090285553188, "timestamp": "2025-12-09T20:37:08.939203+00:00", "meta": {"OBJECT_NAME": "SENTINEL-2B", "OBJECT_ID": "2017-013A", "EPOCH": "2025-12-09T15:02:58.021152", "MEAN_MOTION": 14.30814557, "ECCENTRICITY": 0.00011439, "INCLINATION": 98.5716, "RA_OF_ASC_NODE": 56.1166, "ARG_OF_PERICENTER": 92.4521, "MEAN_ANOMALY": 267.6793, "EPHEMERIS_TYPE": 0, "CLASSIFICATION_TYPE": "U", "NORAD_CAT_ID": 42063, "ELEMENT_SET_NO": 999, "REV_AT_EPOCH": 45753, "BSTAR": 0.00015640395, "MEAN_MOTION_DOT": 3.66e-06, "MEAN_MOTION_DDOT": 0}, "tle": {"line1": "1 42063U 17013A   25343.62706043  .00000366  00000+0  15640-3 0  9995", "line2": "2 42063  98.5716  56.1166 0001143  92.4521 267.6793 14.30814557457532"}}, "geometry": {"type": "Point", "coordinates": [-105.82728542039676, 63.77264732244285]}}, {"type": "Feature", "properties": {"norad_id": 42767, "name": "CARTOSAT-2E", "group": "resource", "lat": -47.536055691629066, "lon": -146.74389695019056, "alt_km": 513.4583074703032, "timestamp": "2025-12-09T20:37:08.939213+00:00", "meta": {"OBJECT_NAME": "CARTOSAT-2E", "OBJECT_ID": "2017-036C", "EPOCH": "2025-12-09T14:52:34.975200", "MEAN_MOTION": 15.19277936, "ECCENTRICITY": 0.00022681, "INCLINATION": 97.4555, "RA_OF_ASC_NODE": 41.2467, "ARG_OF_PERICENTER": 253.5306, "MEAN_ANOMALY": 106.568, "EPHEMERIS_TYPE": 0, "CLASSIFICATION_TYPE": "U", "NORAD_CAT_ID": 42767, "ELEMENT_SET_NO": 999, "REV_AT_EPOCH": 46936, "BSTAR": 0.0004907946, "MEAN_MOTION_DOT": 0.00010292, "MEAN_MOTION_DDOT": 0}, "tle": {"line1": "1 42767U 17036C   25343.61984925  .00010292  00000+0  49079-3 0  9999", "line2": "2 42767  97.4555  41.2467 0002268 253.5306 106.5680 15.19277936469363"}}, "geometry": {"type": "Point", "coordinates": [-146.74389695019056, -47.536055691629066]}}, {"type": "Feature", "properties": {"norad_id": 42920, "name": "FORMOSAT-5", "group": "resource", "lat": -81.4753521870768, "lon": 162.90000224481426, "alt_km": 724.0827260583073, "timestamp": "2025-12-09T20:37:08.939223+00:00", "meta": {"OBJECT_NAME": "FORMOSAT-5", "OBJECT_ID": "2017-049A", "EPOCH": "2025-12-09T14:25:21.390528", "MEAN_MOTION": 14.51002743, "ECCENTRICITY": 0.00100082, "INCLINATION": 98.2455, "RA_OF_ASC_NODE": 57.9822, "ARG_OF_PERICENTER": 306.1966, "MEAN_ANOMALY": 53.8303, "EPHEMERIS_TYPE": 0, "CLASSIFICATION_TYPE": "U", "NORAD_CAT_ID": 42920, "ELEMENT_SET_NO": 999, "REV_AT_EPOCH": 43918, "BSTAR": 0.00012928705, "MEAN_MOTION_DOT": 4.68e-06, "MEAN_MOTION_DDOT": 0}, "tle": {"line1": "1 42920U 17049A   25343.60094202  .00000468  00000+0  12929-3 0  9991", "line2": "2 42920  98.2455  57.9822 0010008 306.1966  53.8303 14.51002743439189"}}, "geometry": {"type": "Point", "coordinates": [162.90000224481426, -81.4753521870768]}}]}